ONEWEB-0404             
1 50484U 21132R   26160.16775123 -.00000152  00000+0 -46471-3 0  9991
2 50484  87.8897  22.6634 0002141  84.8737 275.2636 13.11414910214641
ONEWEB-0405             
1 50485U 21132S   26160.24068177 -.00000006  00000+0 -49209-4 0  9996
2 50485  87.9171 337.0208 0001860 105.2589 254.8749 13.18686345220946
ONEWEB-0406             
1 50486U 21132T   26160.23224003  .00000075  00000+0  15800-3 0  9991
2 50486  87.9163 337.0396 0002396  89.5539 270.5868 13.18684588220573
ONEWEB-0407             
1 50487U 21132U   26159.99787189 -.00000004  00000+0 -42099-4 0  9997
2 50487  87.9168 337.0781 0001624  91.7153 268.4165 13.18684458220489
ONEWEB-0409             
1 50488U 21132V   26160.08975481 -.00000068  00000+0 -22716-3 0  9997
2 50488  87.8900  22.6666 0002077  87.8673 272.2692 13.11415679214524
ONEWEB-0412             
1 50489U 21132W   26160.21368794  .00000021  00000+0  20320-4 0  9993
2 50489  87.9166 337.0437 0001742  82.1131 278.0199 13.18684620220607
ONEWEB-0413             
1 50490U 21132X   26160.21875378  .00000253  00000+0  60919-3 0  9990
2 50490  87.9156 337.0420 0001577  85.0486 275.0826 13.18681762220542
ONEWEB-0414             
1 50491U 21132Y   26160.20357826  .00000052  00000+0  98188-4 0  9990
2 50491  87.9167 337.0260 0001911  85.4548 274.6803 13.18684983220573
ONEWEB-0417             
1 50492U 21132Z   26160.21200767  .00000061  00000+0  12114-3 0  9997
2 50492  87.9158 337.0447 0002093  91.7506 268.3866 13.18684763220550
ONEWEB-0418             
1 50493U 21132AA  26160.22199559  .00000026  00000+0  33237-4 0  9996
2 50493  87.9169 337.0416 0002136  92.4976 267.6401 13.18685100220616
ONEWEB-0419             
1 50494U 21132AB  26160.24046576  .00000034  00000+0  54148-4 0  9992
2 50494  87.9170 337.0373 0002049  97.4293 262.7072 13.18665401220534
ONEWEB-0420             
1 50495U 21132AC  26160.20526210  .00000083  00000+0  17761-3 0  9990
2 50495  87.9159 337.0480 0001649  92.8187 267.3134 13.18685478220522
ONEWEB-0421             
1 50496U 21132AD  26160.19851286  .00000111  00000+0  24791-3 0  9996
2 50496  87.9163 337.0466 0001929  79.5613 280.5736 13.18684409220561
ONEWEB-0424             
1 50497U 21132AE  26160.23561263 -.00000016  00000+0 -73147-4 0  9991
2 50497  87.9165 337.0371 0001987 101.3760 258.7595 13.18684603220599
ONEWEB-0426             
1 50498U 21132AF  26160.19430819  .00000009  00000+0 -11103-4 0  9994
2 50498  87.9167 337.0362 0002438  80.2705 279.8702 13.18688992220531
ONEWEB-0427             
1 50499U 21132AG  26160.23392655  .00000034  00000+0  53346-4 0  9997
2 50499  87.9169 337.0171 0002073  90.7709 269.3661 13.18684513220563
