[{"OBJECT_NAME":"ONEWEB-0404","OBJECT_ID":"2021-132R","EPOCH":"2026-06-09T04:01:33.706272","MEAN_MOTION":13.1141491,"ECCENTRICITY":0.0002141,"INCLINATION":87.8897,"RA_OF_ASC_NODE":22.6634,"ARG_OF_PERICENTER":84.8737,"MEAN_ANOMALY":275.2636,"EPHEMERIS_TYPE":0,"CLASSIFICATION_TYPE":"U","NORAD_CAT_ID":50484,"ELEMENT_SET_NO":999,"REV_AT_EPOCH":21464,"BSTAR":-0.00046471,"MEAN_MOTION_DOT":-1.52e-06,"MEAN_MOTION_DDOT":0.0},{"OBJECT_NAME":"ONEWEB-0405","OBJECT_ID":"2021-132S","EPOCH":"2026-06-09T05:46:34.904928","MEAN_MOTION":13.18686345,"ECCENTRICITY":0.000186,"INCLINATION":87.9171,"RA_OF_ASC_NODE":337.0208,"ARG_OF_PERICENTER":105.2589,"MEAN_ANOMALY":254.8749,"EPHEMERIS_TYPE":0,"CLASSIFICATION_TYPE":"U","NORAD_CAT_ID":50485,"ELEMENT_SET_NO":999,"REV_AT_EPOCH":22094,"BSTAR":-4.9209e-05,"MEAN_MOTION_DOT":-6e-08,"MEAN_MOTION_DDOT":0.0},{"OBJECT_NAME":"ONEWEB-0406","OBJECT_ID":"2021-132T","EPOCH":"2026-06-09T05:34:25.538592","MEAN_MOTION":13.18684588,"ECCENTRICITY":0.0002396,"INCLINATION":87.9163,"RA_OF_ASC_NODE":337.0396,"ARG_OF_PERICENTER":89.5539,"MEAN_ANOMALY":270.5868,"EPHEMERIS_TYPE":0,"CLASSIFICATION_TYPE":"U","NORAD_CAT_ID":50486,"ELEMENT_SET_NO":999,"REV_AT_EPOCH":22057,"BSTAR":0.000158,"MEAN_MOTION_DOT":7.5e-07,"MEAN_MOTION_DDOT":0.0},{"OBJECT_NAME":"ONEWEB-0407","OBJECT_ID":"2021-132U","EPOCH":"2026-06-08T23:56:56.131296","MEAN_MOTION":13.18684458,"ECCENTRICITY":0.0001624,"INCLINATION":87.9168,"RA_OF_ASC_NODE":337.0781,"ARG_OF_PERICENTER":91.7153,"MEAN_ANOMALY":268.4165,"EPHEMERIS_TYPE":0,"CLASSIFICATION_TYPE":"U","NORAD_CAT_ID":50487,"ELEMENT_SET_NO":999,"REV_AT_EPOCH":22048,"BSTAR":-4.2099e-05,"MEAN_MOTION_DOT":-4e-08,"MEAN_MOTION_DDOT":0.0},{"OBJECT_NAME":"ONEWEB-0409","OBJECT_ID":"2021-132V","EPOCH":"2026-06-09T02:09:14.815584","MEAN_MOTION":13.11415679,"ECCENTRICITY":0.0002077,"INCLINATION":87.89,"RA_OF_ASC_NODE":22.6666,"ARG_OF_PERICENTER":87.8673,"MEAN_ANOMALY":272.2692,"EPHEMERIS_TYPE":0,"CLASSIFICATION_TYPE":"U","NORAD_CAT_ID":50488,"ELEMENT_SET_NO":999,"REV_AT_EPOCH":21452,"BSTAR":-0.00022716000000000001,"MEAN_MOTION_DOT":-6.8e-07,"MEAN_MOTION_DDOT":0.0},{"OBJECT_NAME":"ONEWEB-0412","OBJECT_ID":"2021-132W","EPOCH":"2026-06-09T05:07:42.638016","MEAN_MOTION":13.1868462,"ECCENTRICITY":0.0001742,"INCLINATION":87.9166,"RA_OF_ASC_NODE":337.0437,"ARG_OF_PERICENTER":82.1131,"MEAN_ANOMALY":278.0199,"EPHEMERIS_TYPE":0,"CLASSIFICATION_TYPE":"U","NORAD_CAT_ID":50489,"ELEMENT_SET_NO":999,"REV_AT_EPOCH":22060,"BSTAR":2.032e-05,"MEAN_MOTION_DOT":2.1e-07,"MEAN_MOTION_DDOT":0.0},{"OBJECT_NAME":"ONEWEB-0413","OBJECT_ID":"2021-132X","EPOCH":"2026-06-09T05:15:00.326592","MEAN_MOTION":13.18681762,"ECCENTRICITY":0.0001577,"INCLINATION":87.9156,"RA_OF_ASC_NODE":337.042,"ARG_OF_PERICENTER":85.0486,"MEAN_ANOMALY":275.0826,"EPHEMERIS_TYPE":0,"CLASSIFICATION_TYPE":"U","NORAD_CAT_ID":50490,"ELEMENT_SET_NO":999,"REV_AT_EPOCH":22054,"BSTAR":0.00060919,"MEAN_MOTION_DOT":2.53e-06,"MEAN_MOTION_DDOT":0.0},{"OBJECT_NAME":"ONEWEB-0414","OBJECT_ID":"2021-132Y","EPOCH":"2026-06-09T04:53:09.161664","MEAN_MOTION":13.18684983,"ECCENTRICITY":0.0001911,"INCLINATION":87.9167,"RA_OF_ASC_NODE":337.026,"ARG_OF_PERICENTER":85.4548,"MEAN_ANOMALY":274.6803,"EPHEMERIS_TYPE":0,"CLASSIFICATION_TYPE":"U","NORAD_CAT_ID":50491,"ELEMENT_SET_NO":999,"REV_AT_EPOCH":22057,"BSTAR":9.8188e-05,"MEAN_MOTION_DOT":5.2e-07,"MEAN_MOTION_DDOT":0.0},{"OBJECT_NAME":"ONEWEB-0417","OBJECT_ID":"2021-132Z","EPOCH":"2026-06-09T05:05:17.462688","MEAN_MOTION":13.18684763,"ECCENTRICITY":0.0002093,"INCLINATION":87.9158,"RA_OF_ASC_NODE":337.0447,"ARG_OF_PERICENTER":91.7506,"MEAN_ANOMALY":268.3866,"EPHEMERIS_TYPE":0,"CLASSIFICATION_TYPE":"U","NORAD_CAT_ID":50492,"ELEMENT_SET_NO":999,"REV_AT_EPOCH":22055,"BSTAR":0.00012114,"MEAN_MOTION_DOT":6.1e-07,"MEAN_MOTION_DDOT":0.0},{"OBJECT_NAME":"ONEWEB-0418","OBJECT_ID":"2021-132AA","EPOCH":"2026-06-09T05:19:40.418976","MEAN_MOTION":13.186851,"ECCENTRICITY":0.0002136,"INCLINATION":87.9169,"RA_OF_ASC_NODE":337.0416,"ARG_OF_PERICENTER":92.4976,"MEAN_ANOMALY":267.6401,"EPHEMERIS_TYPE":0,"CLASSIFICATION_TYPE":"U","NORAD_CAT_ID":50493,"ELEMENT_SET_NO":999,"REV_AT_EPOCH":22061,"BSTAR":3.3237e-05,"MEAN_MOTION_DOT":2.6e-07,"MEAN_MOTION_DDOT":0.0},{"OBJECT_NAME":"ONEWEB-0419","OBJECT_ID":"2021-132AB","EPOCH":"2026-06-09T05:46:16.241664","MEAN_MOTION":13.18665401,"ECCENTRICITY":0.0002049,"INCLINATION":87.917,"RA_OF_ASC_NODE":337.0373,"ARG_OF_PERICENTER":97.4293,"MEAN_ANOMALY":262.7072,"EPHEMERIS_TYPE":0,"CLASSIFICATION_TYPE":"U","NORAD_CAT_ID":50494,"ELEMENT_SET_NO":999,"REV_AT_EPOCH":22053,"BSTAR":5.4148e-05,"MEAN_MOTION_DOT":3.4e-07,"MEAN_MOTION_DDOT":0.0},{"OBJECT_NAME":"ONEWEB-0420","OBJECT_ID":"2021-132AC","EPOCH":"2026-06-09T04:55:34.645440","MEAN_MOTION":13.18685478,"ECCENTRICITY":0.0001649,"INCLINATION":87.9159,"RA_OF_ASC_NODE":337.048,"ARG_OF_PERICENTER":92.8187,"MEAN_ANOMALY":267.3134,"EPHEMERIS_TYPE":0,"CLASSIFICATION_TYPE":"U","NORAD_CAT_ID":50495,"ELEMENT_SET_NO":999,"REV_AT_EPOCH":22052,"BSTAR":0.00017761,"MEAN_MOTION_DOT":8.3e-07,"MEAN_MOTION_DDOT":0.0},{"OBJECT_NAME":"ONEWEB-0421","OBJECT_ID":"2021-132AD","EPOCH":"2026-06-09T04:45:51.511104","MEAN_MOTION":13.18684409,"ECCENTRICITY":0.0001929,"INCLINATION":87.9163,"RA_OF_ASC_NODE":337.0466,"ARG_OF_PERICENTER":79.5613,"MEAN_ANOMALY":280.5736,"EPHEMERIS_TYPE":0,"CLASSIFICATION_TYPE":"U","NORAD_CAT_ID":50496,"ELEMENT_SET_NO":999,"REV_AT_EPOCH":22056,"BSTAR":0.00024791,"MEAN_MOTION_DOT":1.11e-06,"MEAN_MOTION_DDOT":0.0},{"OBJECT_NAME":"ONEWEB-0424","OBJECT_ID":"2021-132AE","EPOCH":"2026-06-09T05:39:16.931232","MEAN_MOTION":13.18684603,"ECCENTRICITY":0.0001987,"INCLINATION":87.9165,"RA_OF_ASC_NODE":337.0371,"ARG_OF_PERICENTER":101.376,"MEAN_ANOMALY":258.7595,"EPHEMERIS_TYPE":0,"CLASSIFICATION_TYPE":"U","NORAD_CAT_ID":50497,"ELEMENT_SET_NO":999,"REV_AT_EPOCH":22059,"BSTAR":-7.3147e-05,"MEAN_MOTION_DOT":-1.6e-07,"MEAN_MOTION_DDOT":0.0},{"OBJECT_NAME":"ONEWEB-0426","OBJECT_ID":"2021-132AF","EPOCH":"2026-06-09T04:39:48.227616","MEAN_MOTION":13.18688992,"ECCENTRICITY":0.0002438,"INCLINATION":87.9167,"RA_OF_ASC_NODE":337.0362,"ARG_OF_PERICENTER":80.2705,"MEAN_ANOMALY":279.8702,"EPHEMERIS_TYPE":0,"CLASSIFICATION_TYPE":"U","NORAD_CAT_ID":50498,"ELEMENT_SET_NO":999,"REV_AT_EPOCH":22053,"BSTAR":-1.1103e-05,"MEAN_MOTION_DOT":9e-08,"MEAN_MOTION_DDOT":0.0},{"OBJECT_NAME":"ONEWEB-0427","OBJECT_ID":"2021-132AG","EPOCH":"2026-06-09T05:36:51.253920","MEAN_MOTION":13.18684513,"ECCENTRICITY":0.0002073,"INCLINATION":87.9169,"RA_OF_ASC_NODE":337.0171,"ARG_OF_PERICENTER":90.7709,"MEAN_ANOMALY":269.3661,"EPHEMERIS_TYPE":0,"CLASSIFICATION_TYPE":"U","NORAD_CAT_ID":50499,"ELEMENT_SET_NO":999,"REV_AT_EPOCH":22056,"BSTAR":5.334600000000001e-05,"MEAN_MOTION_DOT":3.4e-07,"MEAN_MOTION_DDOT":0.0}]